[{"OBJECT_NAME":"STARLINK-5474","OBJECT_ID":"2023-021AP","EPOCH":"2026-03-09T16:14:51.371808","MEAN_MOTION":14.98330256,"ECCENTRICITY":0.00032851,"INCLINATION":70.001,"RA_OF_ASC_NODE":164.4503,"ARG_OF_PERICENTER":268.7907,"MEAN_ANOMALY":91.2876,"EPHEMERIS_TYPE":0,"CLASSIFICATION_TYPE":"U","NORAD_CAT_ID":55665,"ELEMENT_SET_NO":999,"REV_AT_EPOCH":16927,"BSTAR":-2.487955e-5,"MEAN_MOTION_DOT":-3.9e-6,"MEAN_MOTION_DDOT":0},{"OBJECT_NAME":"AISSAT 1","OBJECT_ID":"2010-035C","EPOCH":"2026-03-09T18:13:55.092288","MEAN_MOTION":14.96891223,"ECCENTRICITY":0.00096674,"INCLINATION":98.1015,"RA_OF_ASC_NODE":324.4785,"ARG_OF_PERICENTER":31.9143,"MEAN_ANOMALY":328.2662,"EPHEMERIS_TYPE":0,"CLASSIFICATION_TYPE":"U","NORAD_CAT_ID":36797,"ELEMENT_SET_NO":999,"REV_AT_EPOCH":84934,"BSTAR":0.00027660201,"MEAN_MOTION_DOT":3.114e-5,"MEAN_MOTION_DDOT":0}]
